     3.03           N: GNSS NAV DATA    G: GPS              RINEX VERSION / TYPE
sbf2rin-13.0.1                          20181106 131946 UTC PGM / RUN BY / DATE 
GPSA   7.4506E-09  1.4901E-08 -5.9605E-08 -1.1921E-07       IONOSPHERIC CORR    
GPSB   7.9872E+04  1.6384E+04 -1.3107E+05 -1.3107E+05       IONOSPHERIC CORR    
GPUT -6.6938810050E-10 4.884981308E-15 265504 2018          TIME SYSTEM CORR    
    18                                                      LEAP SECONDS        
                                                            END OF HEADER       
G08 2018 09 12 12 00 00-1.148749142885E-04-1.250555214938E-12 0.000000000000E+00
     1.500000000000E+01-1.103125000000E+01 4.163744865258E-09 2.918582347995E+00
    -4.339963197708E-07 3.522128099576E-03 1.291558146477E-05 5.153631069183E+03
     3.024000000000E+05-7.823109626770E-08 5.896012734996E-01 5.960464477539E-08
     9.698545035673E-01 1.341250000000E+02-4.061651080299E-01-7.771037980638E-09
     1.639353999960E-10 1.000000000000E+00 2.018000000000E+03 0.000000000000E+00
     2.000000000000E+00 0.000000000000E+00 5.122274160385E-09 1.500000000000E+01
     2.995920000000E+05 4.000000000000E+00
G10 2018 09 12 12 00 00 1.823687925935E-04-2.273736754432E-12 0.000000000000E+00
     9.300000000000E+01-6.931250000000E+01 4.605906140193E-09-1.632662986075E+00
    -3.572553396225E-06 3.761967062019E-03 7.459893822670E-06 5.153662097931E+03
     3.024000000000E+05-2.421438694000E-08 2.694814639972E+00-6.332993507385E-08
     9.618764944512E-01 2.379687500000E+02-2.797134546350E+00-8.142124866468E-09
    -5.307363930154E-10 1.000000000000E+00 2.018000000000E+03 0.000000000000E+00
     2.000000000000E+00 0.000000000000E+00 1.862645149231E-09 9.300000000000E+01
     2.995920000000E+05 4.000000000000E+00
G27 2018 09 12 12 00 00 3.456790000200E-04-3.637978807092E-12 0.000000000000E+00
     6.500000000000E+01-1.781250000000E+00 3.984808840426E-09 2.551135495479E+00
    -5.587935447693E-08 6.027428549714E-03 1.344643533230E-05 5.153698917389E+03
     3.024000000000E+05-1.378357410431E-07 5.989153027921E-01-6.146728992462E-08
     9.780712448218E-01 1.275312500000E+02 4.539933728177E-01-7.642461196328E-09
     1.696499237431E-10 1.000000000000E+00 2.018000000000E+03 0.000000000000E+00
     2.000000000000E+00 0.000000000000E+00 1.862645149231E-09 6.500000000000E+01
     2.995920000000E+05 4.000000000000E+00
G18 2018 09 12 12 00 00 5.640694871545E-05 4.320099833421E-12 0.000000000000E+00
     5.900000000000E+01 4.925000000000E+01 5.279862784621E-09 1.280682418020E-01
     2.700835466385E-06 1.496942352969E-02 5.772337317467E-06 5.153624341965E+03
     3.024000000000E+05-1.490116119385E-07 1.605583774095E+00 5.029141902924E-08
     9.505711220513E-01 2.631562500000E+02 1.347617272137E+00-8.825724769719E-09
     3.021554431299E-10 1.000000000000E+00 2.018000000000E+03 0.000000000000E+00
     2.000000000000E+00 0.000000000000E+00-6.519258022308E-09 5.900000000000E+01
     2.995980000000E+05 4.000000000000E+00
G20 2018 09 12 12 00 00 5.156807601452E-04 5.684341886081E-13 0.000000000000E+00
     7.200000000000E+01-6.956250000000E+01 5.502014895291E-09 2.379409133427E-01
    -3.712251782417E-06 4.247980192304E-03 6.353482604027E-06 5.153668834686E+03
     3.024000000000E+05-9.313225746155E-09 2.585138122339E+00-9.685754776001E-08
     9.291789953262E-01 2.456875000000E+02 2.095844215890E+00-8.710005663840E-09
    -5.625234313588E-10 1.000000000000E+00 2.018000000000E+03 0.000000000000E+00
     2.000000000000E+00 0.000000000000E+00-8.381903171539E-09 7.200000000000E+01
     2.995980000000E+05 4.000000000000E+00
G01 2018 09 12 12 00 00-8.722720667720E-05-4.547473508865E-12 0.000000000000E+00
     1.290000000000E+02 4.287500000000E+01 4.771984486594E-09 3.543293795838E-01
     2.380460500717E-06 8.098832331598E-03 5.351379513741E-06 5.153658926010E+03
     3.024000000000E+05 1.117587089539E-08 1.655116398424E+00 4.656612873077E-08
     9.721389569411E-01 2.789062500000E+02 6.932239157415E-01-8.414636217660E-09
     2.260808457461E-10 1.000000000000E+00 2.018000000000E+03 0.000000000000E+00
     2.800000000000E+00 0.000000000000E+00 5.587935447693E-09 1.290000000000E+02
     2.996280000000E+05 4.000000000000E+00
G32 2018 09 12 12 00 00-4.258900880814E-04 1.102762325900E-11 0.000000000000E+00
     1.050000000000E+02 4.062500000000E+01 4.095527738026E-09-3.004250118276E+00
     2.117827534676E-06 2.297311089933E-03 1.318380236626E-05 5.153713880539E+03
     3.024000000000E+05 2.048909664154E-08-2.546668685784E+00 5.587935447693E-09
     9.572988701747E-01 1.215312500000E+02-2.540508241200E+00-7.809611015932E-09
     1.053615315878E-10 1.000000000000E+00 2.018000000000E+03 0.000000000000E+00
     2.800000000000E+00 0.000000000000E+00 4.656612873077E-10 1.050000000000E+02
     2.996280000000E+05 4.000000000000E+00
G22 2018 09 12 12 00 00-5.169636569917E-04-1.102762325900E-11 0.000000000000E+00
     5.400000000000E+01-7.290625000000E+01 5.630234521867E-09 1.798955723670E+00
    -4.054978489876E-06 7.093204883859E-03 5.600973963737E-06 5.153713373184E+03
     3.024000000000E+05 1.359730958939E-07 2.634666589056E+00-1.080334186554E-07
     9.259521169595E-01 2.498437500000E+02-1.483824378213E+00-8.684290306978E-09
    -5.321650239522E-10 1.000000000000E+00 2.018000000000E+03 0.000000000000E+00
     2.000000000000E+00 0.000000000000E+00-1.816079020500E-08 5.400000000000E+01
     2.996280000000E+05 4.000000000000E+00
G14 2018 09 12 11 59 44-9.732926264405E-05 1.136868377216E-13 0.000000000000E+00
     0.000000000000E+00 4.284375000000E+01 4.067312277025E-09 2.267815038868E+00
     2.205371856689E-06 1.005584164523E-02 1.320801675320E-05 5.153633060455E+03
     3.023840000000E+05 1.154839992523E-07-2.461479746146E+00-1.750886440277E-07
     9.610993089811E-01 1.203125000000E+02-1.941693566691E+00-7.701035064736E-09
     1.789360248322E-10 1.000000000000E+00 2.018000000000E+03 0.000000000000E+00
     2.000000000000E+00 0.000000000000E+00-9.778887033463E-09 0.000000000000E+00
     2.996280000000E+05 4.000000000000E+00
G11 2018 09 12 11 59 44-7.185153663158E-04 2.728484105319E-12 0.000000000000E+00
     7.000000000000E+00 5.915625000000E+01 6.124183668260E-09-2.939191123051E-01
     3.216788172722E-06 1.702160877176E-02 8.473172783852E-06 5.153652244568E+03
     3.023840000000E+05-1.695007085800E-07 1.220859202212E+00-5.401670932770E-08
     9.063712744588E-01 1.895625000000E+02 1.814441677065E+00-9.180382399776E-09
     5.050210361533E-10 1.000000000000E+00 2.018000000000E+03 0.000000000000E+00
     2.000000000000E+00 0.000000000000E+00-1.210719347000E-08 7.000000000000E+00
     2.996580000000E+05 4.000000000000E+00
G03 2018 09 12 12 00 00 1.351824030280E-04 5.229594535194E-12 0.000000000000E+00
     7.200000000000E+01-6.893750000000E+01 4.770198697923E-09-6.792941473050E-01
    -3.738328814507E-06 1.731764874421E-03 6.733462214470E-06 5.153677839279E+03
     3.024000000000E+05 4.470348358154E-08 2.698204643945E+00 4.284083843231E-08
     9.618076305084E-01 2.501562500000E+02 6.185135569437E-01-8.313560578882E-09
    -5.739524788531E-10 1.000000000000E+00 2.018000000000E+03 0.000000000000E+00
     2.000000000000E+00 0.000000000000E+00 1.862645149231E-09 7.200000000000E+01
     3.010020000000E+05 4.000000000000E+00
G28 2018 09 12 12 00 00 7.439674809575E-04 2.160049916711E-12 0.000000000000E+00
     6.400000000000E+01-8.553125000000E+01 4.082312901861E-09-2.824660801226E+00
    -4.423782229424E-06 1.952936593443E-02 6.569549441338E-06 5.153687414169E+03
     3.024000000000E+05 2.849847078323E-07-3.565111273309E-01 1.396983861923E-07
     9.850357530701E-01 2.587812500000E+02-1.514878628273E+00-7.674605392405E-09
    -2.739399821284E-10 1.000000000000E+00 2.018000000000E+03 0.000000000000E+00
     2.800000000000E+00 0.000000000000E+00-1.117587089539E-08 6.400000000000E+01
     3.012420000000E+05 4.000000000000E+00
G18 2018 09 12 14 00 00 5.643814802170E-05 4.320099833421E-12 0.000000000000E+00
     6.000000000000E+01 5.200000000000E+01 5.311649822964E-09 1.178301900021E+00
     2.531334757805E-06 1.496937463526E-02 5.977228283882E-06 5.153623971939E+03
     3.096000000000E+05-2.905726432800E-07 1.605519885536E+00-9.499490261078E-08
     9.505736338816E-01 2.620625000000E+02 1.347600520262E+00-8.727506392816E-09
     3.753727786401E-10 1.000000000000E+00 2.018000000000E+03 0.000000000000E+00
     2.000000000000E+00 0.000000000000E+00-6.519258022308E-09 6.000000000000E+01
     3.024180000000E+05 4.000000000000E+00
G11 2018 09 12 13 59 44-7.184953428805E-04 2.728484105319E-12 0.000000000000E+00
     8.000000000000E+00 5.981250000000E+01 6.140970081767E-09 7.563002897771E-01
     3.008171916008E-06 1.702206546906E-02 8.821487426758E-06 5.153652990341E+03
     3.095840000000E+05-1.937150955200E-07 1.220793028576E+00-1.844018697739E-07
     9.063749024956E-01 1.837812500000E+02 1.814427317061E+00-9.133594736596E-09
     5.075211402926E-10 1.000000000000E+00 2.018000000000E+03 0.000000000000E+00
     2.000000000000E+00 0.000000000000E+00-1.210719347000E-08 8.000000000000E+00
     3.024180000000E+05 4.000000000000E+00
G01 2018 09 12 14 00 00-8.726026862860E-05-4.547473508865E-12 0.000000000000E+00
     1.300000000000E+02 4.593750000000E+01 4.804485840406E-09 1.404496618396E+00
     2.497807145119E-06 8.099260739982E-03 5.740672349930E-06 5.153659729004E+03
     3.096000000000E+05-7.078051567078E-08 1.655055371334E+00 1.527369022369E-07
     9.721408572716E-01 2.758125000000E+02 6.932483069746E-01-8.392135280405E-09
     3.214419607765E-10 1.000000000000E+00 2.018000000000E+03 0.000000000000E+00
     4.000000000000E+00 0.000000000000E+00 5.587935447693E-09 1.300000000000E+02
     3.024180000000E+05 4.000000000000E+00
